KUIPER-00279            
1 67795U 26030AH  26065.57861353  .00021634  00000+0  63117-3 0  9998
2 67795  51.8802 234.2115 0006542  39.7132 320.4332 15.35264306  4613
CREW DRAGON 12          
1 67796U 26031A   26065.54469341  .00009332  00000+0  18044-3 0  9998
2 67796  51.6317  87.9051 0008117 163.3368 196.7888 15.48477653555728
STARLINK-36800          
1 67797U 26032A   26065.58067662  .00103317  00000+0  68420-3 0  9995
2 67797  97.2845 251.9096 0001391  92.2343 267.9082 15.75224016  4294
STARLINK-36798          
1 67798U 26032B   26065.58334491 -.00089893  00000+0 -60697-3 0  9995
2 67798  97.2850 251.9523 0001443  81.3623  25.8800 15.75234980  4227
STARLINK-36804          
1 67799U 26032C   26065.57889868  .00109282  00000+0  72213-3 0  9998
2 67799  97.2846 251.9121 0001630  90.9736 269.1716 15.75255851  4292
STARLINK-36354          
1 67800U 26032D   26065.58334491 -.00012983  00000+0 -86221-4 0  9997
2 67800  97.2849 251.9464 0001419  85.3627   1.8886 15.75211394  4282
STARLINK-36773          
1 67801U 26032E   26065.57573507  .00233484  00000+0  15183-2 0  9996
2 67801  97.2847 251.9162 0001624  81.4320 278.7129 15.75274802  4290
STARLINK-36739          
1 67802U 26032F   26065.58334491 -.00071412  00000+0 -48111-3 0  9996
2 67802  97.2849 251.9690 0001689  91.8390  55.3961 15.75227302  4287
STARLINK-36768          
1 67803U 26032G   26065.56973668  .00131267  00000+0  86574-3 0  9998
2 67803  97.2847 251.9237 0001442  84.8550 275.2880 15.75236352  4299
STARLINK-36792          
1 67804U 26032H   26065.57220883  .00168573  00000+0  11067-2 0  9998
2 67804  97.2848 251.9202 0001464  38.7502 321.3868 15.75236636  4296
STARLINK-36782          
1 67805U 26032J   26065.61284386 -.00401373  00000+0 -22258-2 0  9996
2 67805  97.2831 252.0180 0001411  93.0699 267.0731 15.80485206  4301
STARLINK-36389          
1 67806U 26032K   26065.58334491  .00029140  00000+0  19617-3 0  9998
2 67806  97.2841 251.9601 0001227  80.0330  47.1766 15.75118444  4285
STARLINK-36382          
1 67807U 26032L   26065.58334491 -.00058180  00000+0 -39118-3 0  9995
2 67807  97.2843 251.9640 0001582  78.1895  61.0464 15.75228820  4223
STARLINK-36811          
1 67808U 26032M   26065.58334491 -.00052137  00000+0 -35058-3 0  9991
2 67808  97.2844 251.9882 0001671  77.2240 118.0306 15.75204312  4280
STARLINK-36795          
1 67809U 26032N   26065.56585563  .00129061  00000+0  85167-3 0  9993
2 67809  97.2846 251.9280 0001213  64.0587 296.0803 15.75229867  4297
STARLINK-36807          
1 67810U 26032P   26065.58334491 -.00087337  00000+0 -58901-3 0  9996
2 67810  97.2843 251.9847 0001807  84.9933 104.2308 15.75253476  4282
